OBJECT_NAME,OBJECT_ID,EPOCH,MEAN_MOTION,ECCENTRICITY,INCLINATION,RA_OF_ASC_NODE,ARG_OF_PERICENTER,MEAN_ANOMALY,EPHEMERIS_TYPE,CLASSIFICATION_TYPE,NORAD_CAT_ID,ELEMENT_SET_NO,REV_AT_EPOCH,BSTAR,MEAN_MOTION_DOT,MEAN_MOTION_DDOT
STARLINK-37908,2026-145M,2026-07-06T14:00:03.000384,15.75232715,.00007489,97.2853,34.0326,85.9512,259.1622,0,U,69688,999,304,-.51237242E-3,-.76013E-3,0
STARLINK-37979,2026-145N,2026-07-06T14:00:03.000384,15.75198218,.00016505,97.2854,34.0332,81.0720,266.0597,0,U,69689,999,304,-.13948057E-3,-.20891E-3,0
STARLINK-37940,2026-145P,2026-07-06T14:00:03.000384,15.75198152,.00021414,97.2853,34.0361,110.1872,242.9439,0,U,69690,999,304,-.17218283E-3,-.25746E-3,0
STARLINK-37961,2026-145Q,2026-07-06T14:00:03.000384,15.75191084,.00013202,97.2851,34.0435,89.1546,281.9765,0,U,69691,999,304,-.52165092E-4,-.7904E-4,0
STARLINK-37787,2026-145R,2026-07-06T14:00:03.000384,15.75183929,.00014443,97.2851,34.0483,67.5920,315.5425,0,U,69692,999,304,-.5314841E-4,-.8048E-4,0
STARLINK-37962,2026-145S,2026-07-06T14:00:03.000384,15.75201238,.00016185,97.2851,34.0530,89.2633,303.8603,0,U,69693,999,304,-.15566325E-3,-.23297E-3,0
STARLINK-37953,2026-145T,2026-07-06T14:00:03.000384,15.75197739,.00014533,97.2850,34.0453,88.1496,288.9759,0,U,69694,999,304,-.52937658E-4,-.8021E-4,0
STARLINK-37926,2026-145U,2026-07-06T14:00:03.000384,15.75208877,.00015695,97.2853,34.0482,119.1180,262.0046,0,U,69695,999,304,-.3002888E-3,-.44723E-3,0
STARLINK-37959,2026-145V,2026-07-06T14:00:03.000384,15.75184853,.00013296,97.2853,34.0500,99.0710,288.0599,0,U,69696,999,304,-.64798576E-4,-.9781E-4,0
STARLINK-37976,2026-145W,2026-07-06T14:00:03.000384,15.75194920,.00013616,97.2855,34.0572,72.4616,330.6676,0,U,69697,999,304,-.13165499E-3,-.19726E-3,0
STARLINK-37912,2026-145X,2026-07-06T14:00:03.000384,15.75316242,.00012935,97.2854,34.0603,69.9957,339.1971,0,U,69698,999,304,-.18370919E-2,-.267217E-2,0
STARLINK-37974,2026-145Y,2026-07-06T14:00:03.000384,15.75191401,.00015129,97.2857,34.0616,75.5556,337.5744,0,U,69699,999,304,-.13780779E-3,-.20637E-3,0
STARLINK-37955,2026-145Z,2026-07-06T14:00:03.000384,15.75186656,.00010842,97.2856,34.0680,78.1456,348.9826,0,U,69700,999,304,-.11506837E-3,-.17255E-3,0
STARLINK-38055,2026-147A,2026-07-06T14:00:03.000384,15.80799230,.0001213,97.2836,223.4704,97.2798,34.2779,0,U,69704,999,236,.36703035E-3,.70679E-3,0
STARLINK-37898,2026-147B,2026-07-06T14:00:03.000384,15.80811264,.0000973,97.2838,223.4718,98.0201,38.2121,0,U,69705,999,236,.28978707E-3,.55708E-3,0
STARLINK-37970,2026-147C,2026-07-06T14:00:03.000384,15.80818506,.00014695,97.2839,223.4735,96.8688,43.6350,0,U,69706,999,236,.16957736E-3,.32465E-3,0
STARLINK-37975,2026-147D,2026-07-06T14:00:03.000384,15.80808560,.00008426,97.2838,223.4759,102.5861,42.1849,0,U,69707,999,236,.41776974E-3,.80594E-3,0
STARLINK-37972,2026-147E,2026-07-06T14:00:03.000384,15.80819929,.00004814,97.2837,223.4778,82.8023,66.2416,0,U,69708,999,236,.27480441E-3,.52823E-3,0
STARLINK-37963,2026-147F,2026-07-06T14:00:03.000384,15.80811828,.00012594,97.2837,223.4786,94.0814,59.2417,0,U,69709,999,236,.30001379E-3,.57695E-3,0
STARLINK-37969,2026-147G,2026-07-06T14:00:03.000384,15.80814108,.00014054,97.2838,223.4812,100.4061,57.1946,0,U,69710,999,251,.26548922E-3,.51006E-3,0
STARLINK-37956,2026-147H,2026-07-06T14:00:03.000384,15.80747241,.00011356,97.2838,223.4833,85.3544,76.5463,0,U,69711,999,236,.85992428E-3,.167243E-2,0
STARLINK-38043,2026-147J,2026-07-06T14:00:03.000384,15.80823675,.00012179,97.2837,223.4851,104.8918,61.2697,0,U,69712,999,236,.57191283E-4,.1083E-3,0
STARLINK-38020,2026-147K,2026-07-06T14:00:03.000384,15.80830338,.00015855,97.2837,223.4866,62.4999,107.9088,0,U,69713,999,236,.19565158E-3,.37521E-3,0
STARLINK-38059,2026-147L,2026-07-06T14:00:03.000384,15.80796877,.00013919,97.2837,223.4885,92.3965,82.3157,0,U,69714,999,236,.37335395E-3,.71902E-3,0
STARLINK-38061,2026-147M,2026-07-06T14:00:03.000384,15.80756606,.00013437,97.2838,223.4907,116.2902,62.6752,0,U,69715,999,245,.98023693E-3,.191274E-2,0
STARLINK-38060,2026-147N,2026-07-06T14:00:03.000384,15.80872329,.00008817,97.2834,223.4927,127.6443,55.6061,0,U,69716,999,245,-.37820592E-3,-.72172E-3,0
STARLINK-38040,2026-147P,2026-07-06T14:00:03.000384,15.80823651,.00007343,97.2837,223.4949,95.8817,91.6639,0,U,69717,999,245,-.6715282E-5,-.1428E-4,0
STARLINK-37989,2026-147Q,2026-07-06T14:00:03.000384,15.80812923,.0001319,97.2836,223.4957,110.4842,81.3216,0,U,69718,999,245,.15967484E-3,.30546E-3,0
STARLINK-38039,2026-147R,2026-07-06T14:00:03.000384,15.80961113,.00007104,97.2832,223.4980,107.1075,88.9125,0,U,69719,999,245,-.16719272E-2,-.311283E-2,0
STARLINK-38003,2026-147S,2026-07-06T14:00:03.000384,15.81212397,.00011239,97.2834,223.4995,77.8988,122.2691,0,U,69720,999,245,-.31444696E-2,-.574813E-2,0
STARLINK-38014,2026-147T,2026-07-06T14:00:03.000384,15.81607947,.00014329,97.2836,223.5012,84.0606,120.1380,0,U,69721,999,245,-.58981451E-2,-.1040572E-1,0
STARLINK-37915,2026-147U,2026-07-06T14:00:03.000384,15.81932123,.00011697,97.2835,223.5030,99.9278,108.2989,0,U,69722,999,245,-.77039416E-2,-.1360223E-1,0
STARLINK-38007,2026-147V,2026-07-06T14:00:03.000384,15.80798667,.00011986,97.2836,223.4966,86.8429,108.4441,0,U,69723,999,245,.3906306E-3,.7527E-3,0
STARLINK-38008,2026-147W,2026-07-06T14:00:03.000384,15.82650532,.00016061,97.2836,223.5061,87.4446,128.5356,0,U,69724,999,245,-.99240684E-2,-.1821281E-1,0
STARLINK-38021,2026-147X,2026-07-06T14:00:03.000384,15.82852708,.00015725,97.2836,223.5082,95.6891,124.2451,0,U,69725,999,245,-.98599737E-2,-.1826148E-1,0
STARLINK-38015,2026-147Y,2026-07-06T14:00:03.000384,15.83106586,.00017197,97.2837,223.5091,106.2961,117.4374,0,U,69726,999,245,-.99384964E-2,-.1858526E-1,0
STARLINK-38010,2026-147Z,2026-07-06T14:00:03.000384,15.83345535,.00015416,97.2835,223.5099,101.2434,126.2520,0,U,69727,999,245,-.98117237E-2,-.1855893E-1,0
